0 CBERS 1 DEB
1 30789U 99057NY  13281.86434729  .00001708  00000-0  58328-3 0  8999
2 30789 098.3115 235.7318 0008587 027.0126 026.4833 14.37589211347170
0 CBERS 1 DEB
1 30789U 99057NY  13283.13171572  .00001778  00000-0  60647-3 0  9002
2 30789 098.3116 236.9574 0008489 023.5888 105.1528 14.37598662347351
0 CBERS 1 DEB
1 30789U 99057NY  13284.17603850  .00001934  00000-0  65845-3 0  9016
2 30789 098.3118 237.9672 0008413 020.4981 109.8499 14.37601740347507
0 CBERS 1 DEB
1 30789U 99057NY  13285.83300986  .00001708  00000-0  58293-3 0  9023
2 30789 098.3122 239.5693 0008305 015.8663 044.9541 14.37607230347741
0 CBERS 1 DEB
1 30789U 99057NY  13287.16795823  .00002280  00000-0  77340-3 0  9030
2 30789 098.3114 240.8599 0008356 012.0038 113.6988 14.37610044347930
0 CBERS 1 DEB
1 30789U 99057NY  13288.41986169  .00002922  00000-0  98692-3 0  9041
2 30789 098.3119 242.0704 0008264 008.5138 112.5464 14.37618439348110
0 CBERS 1 DEB
1 30789U 99057NY  13289.86928190  .00002668  00000-0  90243-3 0  9053
2 30789 098.3124 243.4719 0008155 004.4415 053.6567 14.37625723348325
0 CBERS 1 DEB
1 30789U 99057NY  13291.13441184  .00002514  00000-0  85087-3 0  9060
2 30789 098.3129 244.6953 0008051 000.7815 121.1551 14.37631132348506
0 CBERS 1 DEB
1 30789U 99057NY  13292.17974123  .00002513  00000-0  85060-3 0  9070
2 30789 098.3133 245.7061 0007970 357.7744 131.1107 14.37634900348658
0 CBERS 1 DEB
1 30789U 99057NY  13293.43183025  .00002872  00000-0  96989-3 0  9084
2 30789 098.3136 246.9170 0007872 354.1279 131.1884 14.37641369348839
0 CBERS 1 DEB
1 30789U 99057NY  13294.53421163  .00003044  00000-0  10272-2 0  9097
2 30789 098.3137 247.9833 0007786 350.7990 076.6096 14.37646426348997
0 CBERS 1 DEB
1 30789U 99057NY  13295.85381464  .00003034  00000-0  10237-2 0  9104
2 30789 098.3137 249.2598 0007692 346.6557 066.4548 14.37653114349182
